EUTELSAT 115 WEST B     
1 40425U 15010B   21077.40570536 -.00000027  00000-0  00000-0 0  9999
2 40425   0.0184 336.5133 0000231  90.9346 139.8783  1.00272570 22187
EXPRESS-AM7             
1 40505U 15012A   21077.26924380  .00000149  00000-0  00000-0 0  9998
2 40505   0.0039 178.0785 0003030 167.0741 327.7763  1.00272001 22132
IRNSS-1D                
1 40547U 15018A   21076.78636580 -.00000283  00000-0  00000-0 0  9998
2 40547  28.6952 272.7498 0020127 179.0016 118.5578  1.00266750 21767
BEIDOU 17               
1 40549U 15019A   21075.90393047 -.00000164  00000-0  00000-0 0  9990
2 40549  52.6395 318.0589 0036371 187.6143  90.2273  1.00286138 21845
THOR 7                  
1 40613U 15022A   21077.34007875 -.00000010  00000-0  00000-0 0  9997
2 40613   0.0098 194.2609 0002557 156.4521 307.1655  1.00273873 21604
TURKMENALEM52E/MONACOSAT
1 40617U 15023A   21077.48337132  .00000102  00000-0  00000-0 0  9990
2 40617   0.0139 131.6501 0002936 228.5206  42.0860  1.00272373 21610
DIRECTV 15              
1 40663U 15026A   21077.56988104 -.00000104  00000-0  00000-0 0  9997
2 40663   0.0277 109.3013 0000865 101.2098  68.0998  1.00272293 21249
SKY MEXICO-1            
1 40664U 15026B   21077.42901081 -.00000236  00000-0  00000-0 0  9998
2 40664   0.0125 123.4225 0002426 253.3466 235.0849  1.00271586 21286
METEOSAT-11 (MSG-4)     
1 40732U 15034A   21077.34007875 -.00000008  00000-0  00000-0 0  9999
2 40732   0.2023 245.9818 0000211  41.2630  10.8604  1.00272038 20826
STAR ONE C4             
1 40733U 15034B   21077.42627059 -.00000266  00000-0  00000-0 0  9997
2 40733   0.0415  26.4171 0002771 328.9979 264.2159  1.00273971 20803
WGS F7 (USA 263)        
1 40746U 15036A   21077.38886073  .00000016  00000-0  00000-0 0  9993
2 40746   0.0146 158.6734 0000137  85.7061 246.7752  1.00271469 20663
INTELSAT 34 (IS-34)     
1 40874U 15039A   21077.44302250 -.00000287  00000-0  00000-0 0  9996
2 40874   0.0228 179.4963 0000758  40.2630  60.4514  1.00269345 20418
EUTELSAT 8 WEST B       
1 40875U 15039B   21077.25609678 -.00000068  00000-0  00000-0 0  9997
2 40875   0.0655 358.3148 0004303  28.5992 233.2983  1.00271480 20431
GSAT-6                  
1 40880U 15041A   21077.60396740 -.00000162  00000-0  00000-0 0  9993
2 40880   0.0194 141.7279 0002137 132.6284 201.9810  1.00270280 20414
INMARSAT 5-F3           
1 40882U 15042A   21077.39172703  .00000048  00000-0  00000-0 0  9995
2 40882   0.0183 168.2626 0000419  95.3151 233.1652  1.00272619 20355
MUOS-4                  
1 40887U 15044A   21077.48808205 -.00000095  00000-0  00000-0 0  9998
2 40887   2.7167 351.1786 0058694   0.2358  75.5797  1.00272740 20345
TJS-1                   
1 40892U 15046A   21077.62559443 -.00000157  00000-0  00000-0 0  9998
2 40892   0.0525 130.7812 0001917 254.0009 171.9149  1.00271137 20339
EXPRESS-AM8             
1 40895U 15048A   21077.35118609 -.00000113  00000-0  00000-0 0  9990
2 40895   0.0398 307.4809 0000885 166.5165 174.5349  1.00272182 20154
BEIDOU 20               
1 40938U 15053A   21077.02757775 -.00000097  00000-0  00000-0 0  9992
2 40938  52.2028 281.1014 0046921 189.1847 169.5645  1.00257921 20120
SKY MUSTER 1 (NBN1A)    
1 40940U 15054A   21077.55257525 -.00000280  00000-0  00000-0 0  9996
2 40940   0.0098 222.6694 0001675 125.5214 167.2871  1.00272078 20041
ARSAT 2                 
1 40941U 15054B   21077.52047642 -.00000226  00000-0  00000-0 0  9991
2 40941   0.0132 150.1559 0001531 187.9904 304.4985  1.00270614 20107
MORELOS 3               
1 40946U 15056A   21077.56226736 -.00000045  00000-0  00000-0 0  9994
2 40946   4.3904 330.0169 0003136 358.2351 297.3620  1.00274615 20060
APSTAR 9                
1 40982U 15059A   21076.92713039 -.00000269  00000-0  00000-0 0  9991
2 40982   0.0469 276.1664 0002025 196.2008 179.0980  1.00271741 19929
TURKSAT 4B              
1 40984U 15060A   21077.48302237  .00000113  00000-0  00000-0 0  9998
2 40984   0.0168 199.3767 0002297 141.7986  58.9732  1.00276126 19885
CHINASAT 2C (ZX 2C)     
1 41021U 15063A   21077.17063347 -.00000326  00000-0  00000-0 0  9993
2 41021   0.0437 338.3170 0002321  60.3388 302.1340  1.00271671 19788
GSAT-15                 
1 41028U 15065A   21077.40535487 -.00000260  00000-0  00000-0 0  9994
2 41028   0.0345 111.0092 0001499 268.4235  36.1459  1.00273842 19584
BADR-7 (ARABSAT-6B)     
1 41029U 15065B   21077.26290119  .00000143  00000-0  00000+0 0  9997
2 41029   0.0536 254.8224 0003622   7.2349  34.6304  1.00269801 19688
LAOSAT 1                
1 41034U 15067A   21077.28331437 -.00000345  00000-0  00000-0 0  9992
2 41034   0.0407  21.0643 0002020 309.3921  76.0859  1.00271105 19633
TELSTAR 12V             
1 41036U 15068A   21077.35118609 -.00000120  00000-0  00000-0 0  9998
2 41036   0.0019 197.6527 0002215 152.5440 297.3435  1.00272344 19404
CHINASAT 1C (ZX 1C)     
1 41103U 15073A   21075.62989207 -.00000154  00000-0  00000-0 0  9994
2 41103   2.2675  89.8472 0001781 290.6088 102.0922  1.00270015 19429
ELEKTRO-L 2             
1 41105U 15074A   21077.35118609 -.00000116  00000-0  00000-0 0  9997
2 41105   1.8594  93.6251 0000320 116.9857  77.4061  1.00273701 19295
COSMOS 2513             
1 41121U 15075A   21077.13012823 -.00000141  00000-0  00000-0 0  9991
2 41121   0.0447 116.5484 0001994 274.9341 271.5058  1.00271832 19303
EXPRESS-AMU1            
1 41191U 15082A   21077.48014359  .00000154  00000-0  00000-0 0  9993
2 41191   0.0126 237.5777 0002585  98.8379  48.7812  1.00275942 19054
GAOFEN 4                
1 41194U 15083A   21077.57479747 -.00000336  00000-0  00000-0 0  9996
2 41194   0.0214 163.0002 0003523 358.7680 327.1929  1.00271629 19270
BELINTERSAT-1           
1 41238U 16001A   21077.48328407  .00000105  00000-0  00000-0 0  9995
2 41238   0.0502 307.7472 0000782 252.7500 201.2298  1.00269151 19037
IRNSS-1E                
1 41241U 16003A   21076.49284706 -.00000287  00000-0  00000+0 0  9995
2 41241  28.9899  91.8215 0019790 191.1953 181.4698  1.00269731 18971
EUTELSAT 9B             
1 41310U 16005A   21077.34007875  .00000060  00000-0  00000-0 0  9998
2 41310   0.0809  81.7151 0004910 233.9420 351.8506  1.00272439 18890
SES-9                   
1 41380U 16013A   21077.57479747 -.00000347  00000-0  00000-0 0  9999
2 41380   0.0408 274.8833 0001447 130.1446  86.5188  1.00271263 18221
EUTELSAT 65 WEST A      
1 41382U 16014A   21077.43723656 -.00000278  00000-0  00000-0 0  9991
2 41382   0.0648 359.2635 0001882 350.5918 278.5293  1.00276649 18326
IRNSS-1F                
1 41384U 16015A   21077.26412250  .00000157  00000-0  00000-0 0  9995
2 41384   1.9626 196.1342 0023897 185.6619 281.8031  1.00265344 18475
BEIDOU IGSO-6           
1 41434U 16021A   21077.44216072 -.00000132  00000-0  00000-0 0  9996
2 41434  57.4349  57.5966 0040310 216.7451 156.7428  1.00287663 18265
IRNSS-1G                
1 41469U 16027A   21077.50851539 -.00000338  00000-0  00000-0 0  9998
2 41469   1.9552 199.4963 0005604 221.7939  67.4111  1.00265155 17976
JCSAT-2B                
1 41471U 16028A   21077.62559453 -.00000167  00000-0  00000-0 0  9995
2 41471   0.0181 147.8795 0002189 207.4216 200.2946  1.00271072 17902
THAICOM 8               
1 41552U 16031A   21077.27688227 -.00000123  00000-0  00000-0 0  9994
2 41552   0.0767  80.4246 0004783 306.8612 326.9585  1.00271640 17491
INTELSAT 31 (IS-31)     
1 41581U 16035A   21077.41889797 -.00000152  00000-0  00000-0 0  9993
2 41581   0.0144 211.1232 0002423   3.9802  16.8167  1.00271460 17384
BEIDOU-2 G7             
1 41586U 16037A   21077.50552177 -.00000355  00000-0  00000-0 0  9994
2 41586   1.5095  64.4851 0009666   9.1303  35.0707  1.00266809 17571
ABS-2A (MONGOLSAT-1)    
1 41588U 16038A   21077.48790758 -.00000086  00000-0  00000-0 0  9994
2 41588   0.0115 196.6571 0002011  92.1549 137.7869  1.00272170 17485
EUTELSAT 117 WEST B     
1 41589U 16038B   21077.55973293 -.00000013  00000-0  00000-0 0  9990
2 41589   0.0235 330.6527 0000151 101.4456 188.7226  1.00272463 17459
BRISAT                  
1 41591U 16039A   21077.62280236 -.00000198  00000-0  00000-0 0  9994
2 41591   0.0187 205.9799 0002187 147.0687 198.0327  1.00271322 17400
ECHOSTAR 18             
1 41592U 16039B   21077.43974628 -.00000283  00000-0  00000-0 0  9994
2 41592   0.0191 184.5249 0001509 165.7930 282.8497  1.00272612 17417
MUOS-5                  
1 41622U 16041A   21077.56971317 -.00000154  00000-0  00000-0 0  9994
2 41622   6.6535 304.8061 0196010 224.4939 107.0950  1.00272141 17866
TIANTONG-1 1            
1 41725U 16048A   21077.49322896 -.00000319  00000-0  00000-0 0  9992
2 41725   2.6412 340.6668 0005732  39.1540  75.3517  1.00272039 17042
JCSAT-16                
1 41729U 16050A   21074.58521885 -.00000355  00000-0  00000-0 0  9995
2 41729   0.0389  98.7473 0000503 272.2594 140.9726  1.00271216 16828
USA 270                 
1 41744U 16052A   21060.40546567 -.00000017  00000-0  00000+0 0  9998
2 41744   0.0466 102.2795 0007402 267.3246  14.9976  0.99690670  8771
USA 271                 
1 41745U 16052B   21060.40930405 -.00000322  00000-0  00000+0 0  9996
2 41745   0.7946  92.1769 0000271 357.1288 316.1097  1.00407426  8545
INTELSAT 36 (IS-36)     
1 41747U 16053A   21077.48668628 -.00000026  00000-0  00000-0 0  9992
2 41747   0.0136 186.0010 0001120 173.2587  60.7156  1.00270027 16740
INTELSAT 33E (IS-33E)   
1 41748U 16053B   21077.48494156  .00000047  00000-0  00000-0 0  9998
2 41748   0.0525 328.4474 0001533  23.4287  58.9320  1.00273409 17021
INSAT-3DR               
1 41752U 16054A   21077.27688227 -.00000079  00000-0  00000-0 0  9991
2 41752   0.0566 101.5555 0011677 176.9382  71.1744  1.00271926 16580
GSAT-18                 
1 41793U 16060A   21077.48773310 -.00000079  00000-0  00000-0 0  9994
2 41793   0.0287 119.0251 0001991  21.7302 285.0553  1.00272544 16311
